{"version": 0.6, "generator": "Overpass API 0.7.59 e21c39fe", "osm3s": {"timestamp_osm_base": "2022-12-02T08:55:39Z", "copyright": "The data included in this document is from www.openstreetmap.org. The data is made available under ODbL."}, "elements": [{"type": "node", "id": 1838942859, "lat": -6.3722806, "lon": 106.8342896}, {"type": "node", "id": 1838942860, "lat": -6.3722969, "lon": 106.8344147}, {"type": "node", "id": 1838942870, "lat": -6.3724235, "lon": 106.8343981}, {"type": "node", "id": 1838942872, "lat": -6.3724072, "lon": 106.8342729}, {"type": "node", "id": 2884921732, "lat": -6.3592649, "lon": 106.8332498}, {"type": "node", "id": 2884921738, "lat": -6.3592785, "lon": 106.8331454}, {"type": "node", "id": 2884921781, "lat": -6.3595478, "lon": 106.8332871}, {"type": "node", "id": 2884921785, "lat": -6.3595614, "lon": 106.8331826}, {"type": "node", "id": 2884931914, "lat": -6.3619436, "lon": 106.8338879}, {"type": "node", "id": 2884931917, "lat": -6.3619664, "lon": 106.8337391}, {"type": "node", "id": 2884931922, "lat": -6.3620176, "lon": 106.8338994}, {"type": "node", "id": 2884931931, "lat": -6.3620406, "lon": 106.8337506}, {"type": "node", "id": 2884931934, "lat": -6.3620824, "lon": 106.8339094}, {"type": "node", "id": 2884931938, "lat": -6.3621052, "lon": 106.8337606}, {"type": "node", "id": 2884932020, "lat": -6.3638114, "lon": 106.8333542}, {"type": "node", "id": 2884932021, "lat": -6.3638176, "lon": 106.8331975}, {"type": "node", "id": 2884932022, "lat": -6.3638777, "lon": 106.8333569}, {"type": "node", "id": 2884932024, "lat": -6.3638839, "lon": 106.8332002}, {"type": "node", "id": 2938525996, "lat": -6.3629716, "lon": 106.7442852}, {"type": "node", "id": 2938525998, "lat": -6.3629712, "lon": 106.743903}, {"type": "node", "id": 2938526000, "lat": -6.3630974, "lon": 106.7442851}, {"type": "node", "id": 2938526003, "lat": -6.3630973, "lon": 106.7441737}, {"type": "node", "id": 2938526005, "lat": -6.3630897, "lon": 106.7439028}, {"type": "node", "id": 2938526007, "lat": -6.3630896, "lon": 106.7438215}, {"type": "node", "id": 2938526010, "lat": -6.3631255, "lon": 106.7443601}, {"type": "node", "id": 2938526011, "lat": -6.3631253, "lon": 106.7441737}, {"type": "node", "id": 2938526019, "lat": -6.3633093, "lon": 106.7443598}, {"type": "node", "id": 2938526020, "lat": -6.3633089, "lon": 106.7440816}, {"type": "node", "id": 2938526021, "lat": -6.3633072, "lon": 106.7439129}, {"type": "node", "id": 2938526022, "lat": -6.3633071, "lon": 106.7438213}, {"type": "node", "id": 2938526036, "lat": -6.3635565, "lon": 106.7439126}, {"type": "node", "id": 2938526037, "lat": -6.3635568, "lon": 106.7440813}, {"type": "node", "id": 3045391728, "lat": -6.4017842, "lon": 106.8214698}, {"type": "node", "id": 3045391729, "lat": -6.4018009, "lon": 106.8217233}, {"type": "node", "id": 3045391734, "lat": -6.4020507, "lon": 106.8214521}, {"type": "node", "id": 3045391735, "lat": -6.4020674, "lon": 106.8217057}, {"type": "node", "id": 3101789565, "lat": -6.4062339, "lon": 106.8126289}, {"type": "node", "id": 3101789566, "lat": -6.4062392, "lon": 106.8127532}, {"type": "node", "id": 3101789582, "lat": -6.4063868, "lon": 106.8126262}, {"type": "node", "id": 3101789583, "lat": -6.4063968, "lon": 106.8127492}, {"type": "node", "id": 3136934894, "lat": -6.3660709, "lon": 106.8337974}, {"type": "node", "id": 3136934895, "lat": -6.3660777, "lon": 106.8337356}, {"type": "node", "id": 3136934901, "lat": -6.3661144, "lon": 106.8338023}, {"type": "node", "id": 3136934902, "lat": -6.3661213, "lon": 106.8337405}, {"type": "node", "id": 3136934903, "lat": -6.3661325, "lon": 106.8338101}, {"type": "node", "id": 3136934905, "lat": -6.3661339, "lon": 106.8337752}, {"type": "node", "id": 3136934913, "lat": -6.3661833, "lon": 106.8338122}, {"type": "node", "id": 3136934914, "lat": -6.3661847, "lon": 106.8337772}, {"type": "node", "id": 3136958947, "lat": -6.3646235, "lon": 106.8343012}, {"type": "node", "id": 3136958969, "lat": -6.3646779, "lon": 106.8342148}, {"type": "node", "id": 3136959006, "lat": -6.3647482, "lon": 106.8343806}, {"type": "node", "id": 3136959025, "lat": -6.3647864, "lon": 106.8341881}, {"type": "node", "id": 3136959030, "lat": -6.3648025, "lon": 106.8342941}, {"type": "node", "id": 3136959051, "lat": -6.3648529, "lon": 106.8342262}, {"type": "node", "id": 3136959055, "lat": -6.364858, "lon": 106.8340618}, {"type": "node", "id": 3136959082, "lat": -6.3649245, "lon": 106.8341}, {"type": "node", "id": 3137688817, "lat": -6.3667975, "lon": 106.8338669}, {"type": "node", "id": 3137688820, "lat": -6.3668037, "lon": 106.8337905}, {"type": "node", "id": 3137688854, "lat": -6.3669552, "lon": 106.8338798}, {"type": "node", "id": 3137688855, "lat": -6.3669614, "lon": 106.8338035}, {"type": "node", "id": 3145725441, "lat": -6.3995874, "lon": 106.8218571}, {"type": "node", "id": 3145725445, "lat": -6.3995989, "lon": 106.8219497}, {"type": "node", "id": 3145725480, "lat": -6.3997032, "lon": 106.8218425}, {"type": "node", "id": 3145725487, "lat": -6.3997147, "lon": 106.8219351}, {"type": "node", "id": 3152762306, "lat": -6.4056977, "lon": 106.8186193}, {"type": "node", "id": 3152762307, "lat": -6.4057079, "lon": 106.8187383}, {"type": "node", "id": 3152762308, "lat": -6.4057394, "lon": 106.8186156}, {"type": "node", "id": 3152762309, "lat": -6.4057497, "lon": 106.8187347}, {"type": "node", "id": 4005841537, "lat": -6.4323537, "lon": 106.8217174}, {"type": "node", "id": 4005841538, "lat": -6.4324141, "lon": 106.8216905}, {"type": "node", "id": 4005841539, "lat": -6.4324548, "lon": 106.8217832}, {"type": "node", "id": 4005841540, "lat": -6.4323943, "lon": 106.8218101}, {"type": "node", "id": 4343909154, "lat": -6.3649986, "lon": 106.831092, "tags": {"amenity": "cafe", "cuisine": "coffee_shop", "name": "Bikun Coffee"}}, {"type": "node", "id": 4343998651, "lat": -6.365361, "lon": 106.8297431, "tags": {"amenity": "cafe", "cuisine": "coffee_shop", "name": "Java Aroma Perpustakaan Universitas Indoenesia", "outdoor_seating": "no"}}, {"type": "node", "id": 4443272266, "lat": -6.4177153, "lon": 106.8227519, "tags": {"amenity": "cafe", "name": "Cafe Durio"}}, {"type": "node", "id": 4731519810, "lat": -6.3724677, "lon": 106.8800485}, {"type": "node", "id": 4731519811, "lat": -6.3724931, "lon": 106.8800478}, {"type": "node", "id": 4731519812, "lat": -6.372492, "lon": 106.880007}, {"type": "node", "id": 4731519813, "lat": -6.3724666, "lon": 106.8800078}, {"type": "node", "id": 4746522009, "lat": -6.3741662, "lon": 106.7271836}, {"type": "node", "id": 4746522010, "lat": -6.3742742, "lon": 106.7271776}, {"type": "node", "id": 4746522011, "lat": -6.3742675, "lon": 106.7270568}, {"type": "node", "id": 4746522012, "lat": -6.3741596, "lon": 106.7270629}, {"type": "node", "id": 4791080588, "lat": -6.3620377, "lon": 106.8337502}, {"type": "node", "id": 4791080589, "lat": -6.3620118, "lon": 106.8338985}, {"type": "node", "id": 4791080590, "lat": -6.359605, "lon": 106.8331884}, {"type": "node", "id": 4791080591, "lat": -6.3595914, "lon": 106.8332928}, {"type": "node", "id": 5242544223, "lat": -6.3597928, "lon": 106.8201082, "tags": {"amenity": "cafe", "name:en": "Warkop Cumlaude"}}, {"type": "node", "id": 5315749026, "lat": -6.3963765, "lon": 106.8193076, "tags": {"addr:city": "Depok City", "addr:postcode": "16431", "addr:street": "Jalan Pelenongan Sejajar Rel", "amenity": "cafe", "cuisine": "regional", "internet_access": "no", "name:en": "Mie Ayam Bang Toto"}}, {"type": "node", "id": 5315753123, "lat": -6.3949056, "lon": 106.8183495, "tags": {"addr:city": "Depok City", "addr:postcode": "16431", "addr:street": "Jalan Mesjid Lio", "amenity": "cafe", "cuisine": "regional", "name": "Mie Ayam Bakso Tito", "name:en": "Chicken Noodle Tito"}}, {"type": "node", "id": 5315753124, "lat": -6.3948463, "lon": 106.8183555, "tags": {"addr:city": "Depok City", "addr:postcode": "16431", "addr:street": "Jalan Mesjid Lio", "amenity": "cafe", "cuisine": "chicken", "name": "Ayam Bakar Mas Karso", "name:en": "Ayam Bakar Mas Karso"}}, {"type": "node", "id": 5315753128, "lat": -6.3935217, "lon": 106.8204225, "tags": {"addr:city": "Depok City", "addr:postcode": "16431", "addr:street": "Jalan Pelenongan Sejajar Rel", "amenity": "cafe", "cuisine": "coffee_shop", "name": "Warkop Gaul", "name:en": "Warkop Gaul"}}, {"type": "node", "id": 5315753321, "lat": -6.3965591, "lon": 106.8192221, "tags": {"addr:city": "Depok City", "addr:postcode": "16431", "addr:street": "Jalan Pelenongan Sejajar Rel", "amenity": "cafe", "cuisine": "coffee_shop", "internet_access": "no", "name": "Warkop Gunung City", "name:en": "Warkop Gunung City"}}, {"type": "node", "id": 5315753326, "lat": -6.3953038, "lon": 106.8196573, "tags": {"addr:city": "Depok City", "addr:postcode": "16431", "addr:street": "Jalan Pelenongan Sejajar Rel", "amenity": "cafe", "cuisine": "regional", "internet_access": "no", "name": "Mie Aceh Serambi", "name:en": "Warung Mie Aceh Serambi"}}, {"type": "node", "id": 5315754921, "lat": -6.3988399, "lon": 106.8175507, "tags": {"addr:housenumber": "16", "addr:postcode": "16431", "addr:street": "Jalan Masjid Lio", "amenity": "cafe", "cuisine": "regional", "name": "Bakso Rudal Mie Ayam Wonogiri", "name:en": "Bakso Rudal Mie Ayam Wonogiri"}}, {"type": "node", "id": 5360214006, "lat": -6.3946102, "lon": 106.8143171, "tags": {"addr:city": "Depok City", "addr:housenumber": "292", "addr:postcode": "16432", "addr:street": "Nusantara Raya", "amenity": "cafe", "internet_access": "yes", "internet_access:fee": "no", "name": "Geray Cafe", "outdoor_seating": "no", "smoking": "separated"}}, {"type": "node", "id": 5367286073, "lat": -6.3753782, "lon": 106.8495719, "tags": {"addr:city": "Depok", "addr:postcode": "16418", "addr:street": "Duta Indah 5", "amenity": "cafe", "cuisine": "regional;Bakso", "internet_access": "yes", "name": "Bakso Kuah & Bakar Moro Seneng", "opening_hours": "Mo-Su 09:00-23:00", "outdoor_seating": "yes", "smoking": "separated"}}, {"type": "node", "id": 5367303996, "lat": -6.3723747, "lon": 106.8494116, "tags": {"amenity": "cafe", "name": "Warung Edi"}}, {"type": "node", "id": 5367304032, "lat": -6.3724866, "lon": 106.8494184, "tags": {"amenity": "cafe", "name": "Warung Soesoe"}}, {"type": "node", "id": 5367310256, "lat": -6.372448, "lon": 106.8494157, "tags": {"amenity": "cafe", "name": "Roti Bakar Jangkung"}}, {"type": "node", "id": 5430187332, "lat": -6.3633382, "lon": 106.8288329, "tags": {"addr:housenumber": "1", "addr:street": "Jalan Prof. DR. Nugroho Notosusanto", "amenity": "cafe", "cuisine": "cake;pancake;coffee_shop", "internet_access": "wlan", "name:en": "Next Door", "opening_hours": "Mo-Sa 09:00-19:00"}}, {"type": "node", "id": 5537157022, "lat": -6.3926012, "lon": 106.8207789, "tags": {"addr:street": "Jalan Pelenongan Sejajar Rel", "amenity": "cafe", "name:en": "Bakso Gubuk Mas Jangkung", "phone": "+62 85311969066"}}, {"type": "node", "id": 5617927323, "lat": -6.360147, "lon": 106.8165614, "tags": {"addr:postcode": "16425", "addr:street": "Jalan Kukusan Raya", "amenity": "cafe", "contact:instagram": "https://www.instagram.com/iceonly001", "cuisine": "sandwich;ice_cream;arab", "internet_access": "wlan", "name": "Ice Only", "name:en": "Ice Only", "opening_hours": "Mo-Su 11:00-02:00", "operator": "Ali Ridho & Didit Pangestu", "phone": "+62 812 26572878", "website": "https://www.instagram.com/iceonly001"}}, {"type": "node", "id": 5636838059, "lat": -6.3653117, "lon": 106.8298142, "tags": {"amenity": "cafe", "cuisine": "food & beverage", "delivery": "no", "internet_access": "yes", "internet_access:fee": "no", "name": "Green T Cafe", "opening_hours": "08:00-19:00", "smoking": "no", "takeaway": "yes", "wheelchair": "no"}}, {"type": "node", "id": 5640868211, "lat": -6.353942, "lon": 106.7762701, "tags": {"addr:city": "Depok", "addr:housenumber": "16", "addr:postcode": "16515", "addr:street": "Jalan Raya Limo", "amenity": "cafe", "internet_access": "wlan", "name": "Al Berkah Cafe", "opening_hours": "Mo-Su 09:00-20:00"}}, {"type": "node", "id": 5642901891, "lat": -6.3627813, "lon": 106.7821881, "tags": {"addr:city": "Depok", "addr:housenumber": "C 10", "addr:postcode": "16515", "addr:street": "Jalan Cakra Indah", "amenity": "cafe", "cuisine": "coffee_shop;restorant", "internet_access": "wlan", "name": "Cakra Cafe & Resto", "opening_hours": "09:00-21:00"}}, {"type": "node", "id": 8716799944, "lat": -6.4250612, "lon": 106.8254709, "tags": {"amenity": "cafe", "cuisine": "coffee_shop", "name": "Rey's Cafe"}}, {"type": "node", "id": 9684336641, "lat": -6.3969628, "lon": 106.8205295, "tags": {"amenity": "cafe", "name": "Kopi Nako - Depok"}}, {"type": "node", "id": 9684620445, "lat": -6.3617588, "lon": 106.8336924, "tags": {"amenity": "cafe", "name": "Kopi Kotak Margonda Depok - Pondok Cina"}}, {"type": "node", "id": 9684696265, "lat": -6.3542183, "lon": 106.8367235, "tags": {"amenity": "cafe", "name": "Oi Coffee Eatery - Tugu"}}, {"type": "node", "id": 9763156048, "lat": -6.4152798, "lon": 106.8208376}, {"type": "node", "id": 9763156049, "lat": -6.415387, "lon": 106.8208218}, {"type": "node", "id": 9763156050, "lat": -6.4153949, "lon": 106.8210196}, {"type": "node", "id": 9763156051, "lat": -6.4153033, "lon": 106.8210398}, {"type": "node", "id": 9763156066, "lat": -6.3951666, "lon": 106.799714}, {"type": "node", "id": 9763156067, "lat": -6.3952191, "lon": 106.7997174}, {"type": "node", "id": 9763156068, "lat": -6.3952224, "lon": 106.7997455}, {"type": "node", "id": 9763156069, "lat": -6.3952872, "lon": 106.7997443}, {"type": "node", "id": 9763156070, "lat": -6.3952905, "lon": 106.7998455}, {"type": "node", "id": 9763156071, "lat": -6.3951577, "lon": 106.7998365}, {"type": "node", "id": 10023590558, "lat": -6.3826305, "lon": 106.8292699, "tags": {"amenity": "cafe", "name": "Mc Donald Margonda"}}, {"type": "node", "id": 10120273239, "lat": -6.4332554, "lon": 106.792115, "tags": {"air_conditioning": "no", "amenity": "cafe", "check_date:opening_hours": "2022-10-22", "diet:halal": "yes", "diet:kosher": "no", "diet:vegetarian": "no", "indoor_seating": "yes", "name": "Warkop Tio", "opening_hours:signed": "no", "outdoor_seating": "yes", "payment:credit_cards": "no", "payment:debit_cards": "no", "smoking": "yes", "wheelchair": "yes"}}, {"type": "node", "id": 10124251638, "lat": -6.4416708, "lon": 106.7980074, "tags": {"air_conditioning": "no", "amenity": "cafe", "check_date:opening_hours": "2022-10-23", "diet:halal": "yes", "diet:kosher": "no", "diet:vegetarian": "no", "indoor_seating": "yes", "name": "Warung Kopi Hek", "opening_hours:signed": "no", "outdoor_seating": "yes", "payment:credit_cards": "no", "payment:debit_cards": "no", "smoking": "yes", "wheelchair": "yes"}}, {"type": "node", "id": 10127970111, "lat": -6.4133644, "lon": 106.8144055, "tags": {"air_conditioning": "no", "amenity": "cafe", "check_date:opening_hours": "2022-10-30", "diet:halal": "yes", "diet:kosher": "no", "diet:vegetarian": "no", "indoor_seating": "yes", "name": "Warkop Dipo", "opening_hours:signed": "no", "outdoor_seating": "yes", "payment:credit_cards": "no", "payment:debit_cards": "no", "smoking": "yes", "wheelchair": "yes"}}, {"type": "node", "id": 10129486613, "lat": -6.4491464, "lon": 106.7992343, "tags": {"amenity": "cafe", "check_date:opening_hours": "2022-10-26", "indoor_seating": "no", "name": "Warung Seblak", "opening_hours:signed": "no", "outdoor_seating": "yes"}}, {"type": "node", "id": 10130584329, "lat": -6.4076965, "lon": 106.8015157, "tags": {"air_conditioning": "no", "amenity": "cafe", "check_date:opening_hours": "2022-10-26", "diet:halal": "yes", "diet:kosher": "no", "diet:vegetarian": "no", "indoor_seating": "yes", "name": "Warkop Tawa 20", "opening_hours:signed": "no", "outdoor_seating": "yes", "payment:credit_cards": "no", "payment:debit_cards": "no", "smoking": "yes", "wheelchair": "yes"}}, {"type": "node", "id": 10130695264, "lat": -6.3780433, "lon": 106.7702476, "tags": {"air_conditioning": "no", "amenity": "cafe", "check_date:opening_hours": "2022-10-26", "diet:halal": "yes", "diet:kosher": "no", "diet:vegetarian": "no", "indoor_seating": "yes", "name": "Kedai Kopi Limo", "opening_hours:signed": "no", "outdoor_seating": "no", "payment:credit_cards": "no", "payment:debit_cards": "no", "smoking": "yes", "wheelchair": "yes"}}, {"type": "node", "id": 10137863503, "lat": -6.4125844, "lon": 106.7990013, "tags": {"air_conditioning": "no", "amenity": "cafe", "check_date:opening_hours": "2022-10-29", "diet:halal": "yes", "diet:kosher": "no", "diet:vegetarian": "no", "indoor_seating": "yes", "name": "Angkringan 46", "opening_hours:signed": "no", "outdoor_seating": "no", "payment:credit_cards": "no", "payment:debit_cards": "no", "smoking": "yes", "wheelchair": "yes"}}, {"type": "node", "id": 10147371095, "lat": -6.4142762, "lon": 106.7980506, "tags": {"air_conditioning": "no", "amenity": "cafe", "check_date:opening_hours": "2022-11-01", "diet:halal": "yes", "diet:kosher": "no", "diet:vegetarian": "no", "indoor_seating": "no", "name": "Angkringan", "opening_hours:signed": "no", "outdoor_seating": "yes", "payment:credit_cards": "no", "payment:debit_cards": "no", "smoking": "yes", "wheelchair": "yes"}}, {"type": "node", "id": 10149111769, "lat": -6.4161595, "lon": 106.7971893, "tags": {"air_conditioning": "no", "amenity": "cafe", "check_date:opening_hours": "2022-11-02", "diet:halal": "yes", "diet:kosher": "no", "diet:vegetarian": "no", "indoor_seating": "yes", "name": "Angkringan", "opening_hours:signed": "no", "outdoor_seating": "yes", "payment:credit_cards": "no", "payment:debit_cards": "no", "smoking": "yes", "wheelchair": "yes"}}, {"type": "node", "id": 10171344557, "lat": -6.3768771, "lon": 106.7703317, "tags": {"air_conditioning": "no", "amenity": "cafe", "check_date:opening_hours": "2022-11-09", "diet:halal": "yes", "diet:kosher": "no", "diet:vegetarian": "no", "indoor_seating": "no", "name": "Warkop Barokah", "opening_hours:signed": "no", "outdoor_seating": "yes", "payment:credit_cards": "no", "payment:debit_cards": "no", "smoking": "yes", "wheelchair": "yes"}}, {"type": "node", "id": 10173587793, "lat": -6.4034561, "lon": 106.7858883, "tags": {"air_conditioning": "no", "amenity": "cafe", "check_date:opening_hours": "2022-11-10", "diet:halal": "yes", "diet:kosher": "no", "diet:vegetarian": "no", "indoor_seating": "no", "name": "Warkop Malik", "opening_hours:signed": "no", "outdoor_seating": "yes", "payment:credit_cards": "no", "payment:debit_cards": "no", "smoking": "yes", "wheelchair": "yes"}}, {"type": "node", "id": 10214301688, "lat": -6.3684358, "lon": 106.8352991, "tags": {"addr:city": "Depok", "addr:housenumber": "8", "addr:postcode": "16235", "addr:street": "Jalan HM Tohir", "amenity": "cafe", "cuisine": "coffee_shop;asian", "internet_access": "yes", "name": "Roomy Kitchen", "opening_hours": "24", "outdoor_seating": "yes", "phone": "+6281283839919"}}, {"type": "way", "id": 173068662, "nodes": [1838942859, 1838942860, 1838942870, 1838942872, 1838942859], "tags": {"amenity": "cafe", "internet_access": "yes", "internet_access:fee": "yes", "name": "Old House Coffee Shop", "wheelchair": "yes"}}, {"type": "way", "id": 284785764, "nodes": [2884921738, 2884921732, 2884921781, 2884921785, 2884921738], "tags": {"amenity": "cafe", "building": "yes", "name": "Milan Cafe"}}, {"type": "way", "id": 284787020, "nodes": [2884932021, 2884932020, 2884932022, 2884932024, 2884932021], "tags": {"amenity": "cafe", "building": "yes", "name": "Starbucks - Margonda Raya"}}, {"type": "way", "id": 284787038, "nodes": [2884931917, 2884931914, 4791080589, 2884931922, 2884931934, 2884931938, 2884931931, 4791080588, 2884931917], "tags": {"amenity": "cafe", "building": "yes", "name": "MUG Cafee"}}, {"type": "way", "id": 290296366, "nodes": [2938526007, 2938526022, 2938526021, 2938526036, 2938526037, 2938526020, 2938526019, 2938526010, 2938526011, 2938526003, 2938526000, 2938525996, 2938525998, 2938526005, 2938526007], "tags": {"addr:housename": "Gedung Paramitha", "amenity": "cafe", "building": "office", "name": "Gedung Paramitha"}}, {"type": "way", "id": 300451869, "nodes": [3045391728, 3045391729, 3045391735, 3045391734, 3045391728], "tags": {"addr:city": "Pancoran Mas, Depok", "addr:housenumber": "23a", "addr:street": "Jalan Pemuda", "amenity": "cafe", "building": "yes", "cuisine": "daerahregional", "denomination": "protestant", "internet_access": "yes", "internet_access:fee": "customers", "name": "Kopi Bajawa Flores Depok", "opening_hours": "Mo-Su 09:00-22:00", "phone": "087776676008"}}, {"type": "way", "id": 305539176, "nodes": [3101789565, 3101789566, 3101789583, 3101789582, 3101789565], "tags": {"amenity": "cafe", "building": "yes", "name": "Mie Ayam Bakso Istiqomah"}}, {"type": "way", "id": 308408844, "nodes": [3136934903, 3136934913, 3136934914, 3136934905, 3136934903], "tags": {"amenity": "cafe", "building": "yes", "name": "What's Up Cafe"}}, {"type": "way", "id": 308408902, "nodes": [3136934895, 3136934894, 3136934901, 3136934902, 3136934895], "tags": {"amenity": "cafe", "building": "yes", "name": "What's Up Cafe"}}, {"type": "way", "id": 308411216, "nodes": [3136958969, 3136958947, 3136959006, 3136959030, 3136958969], "tags": {"amenity": "cafe", "building": "yes", "name": "Warung Upnormal"}}, {"type": "way", "id": 308411316, "nodes": [3136959055, 3136959025, 3136959051, 3136959082, 3136959055], "tags": {"amenity": "cafe", "building": "yes", "name": "Warung Upnormal"}}, {"type": "way", "id": 308489825, "nodes": [3137688820, 3137688817, 3137688854, 3137688855, 3137688820], "tags": {"amenity": "cafe", "building": "yes", "name": "Kedai Kopi Kimung"}}, {"type": "way", "id": 309246879, "nodes": [3145725441, 3145725445, 3145725487, 3145725480, 3145725441], "tags": {"amenity": "cafe", "building": "yes", "name": "Dadis Coffee Garden - Depok"}}, {"type": "way", "id": 309941864, "nodes": [3152762309, 3152762308, 3152762306, 3152762307, 3152762309], "tags": {"amenity": "cafe", "building": "yes", "name": "Stadela Coffee - Depok"}}, {"type": "way", "id": 397797993, "nodes": [4005841537, 4005841538, 4005841539, 4005841540, 4005841537], "tags": {"addr:city": "Depok", "addr:postcode": "16413", "addr:street": "Jalan Kalimulya", "amenity": "cafe", "building": "yes", "cuisine": "regional", "internet_access": "no", "name": "Warkop Kupi", "smoking": "separated", "website": "http://warkopkupi.blogspot.co.id/"}}, {"type": "way", "id": 480127352, "nodes": [4731519813, 4731519810, 4731519811, 4731519812, 4731519813], "tags": {"amenity": "cafe", "building": "yes", "name": "kuppy"}}, {"type": "way", "id": 481749090, "nodes": [4746522012, 4746522009, 4746522010, 4746522011, 4746522012], "tags": {"addr:city": "Depok", "addr:postcode": "16517", "addr:street": "Jl. Serua Bulak Raya, Gg, Jl. H. Sarmat No.mor 11, RT.004/RW003,", "air_conditioning": "no", "amenity": "cafe", "bar": "yes", "building": "yes", "cuisine": "coffee_shop;coffee;snack;fried_food", "internet_access": "no", "name": "Lampaoe Coffee & Culture", "opening_hours": "Mo-Fr 15:00-23:30", "opening_hours:covid19": "same", "outdoor_seating": "yes", "payment:cash": "yes", "payment:debit_cards": "yes", "phone": "+6285694939251", "smoking": "yes", "website": "https://linktr.ee/Lampaoe"}}, {"type": "way", "id": 486500344, "nodes": [2884921785, 2884921781, 4791080591, 4791080590, 2884921785], "tags": {"amenity": "cafe", "building": "yes", "name": "Martabak Bintang"}}, {"type": "way", "id": 1062769745, "nodes": [9763156048, 9763156049, 9763156050, 9763156051, 9763156048], "tags": {"addr:street": "Jalan Boulevard", "amenity": "cafe", "brand": "Starbucks", "brand:wikidata": "Q37158", "building": "yes", "cuisine": "coffee_shop", "name": "Starbucks", "official_name": "Starbucks Coffee", "takeaway": "yes"}}, {"type": "way", "id": 1062769749, "nodes": [9763156066, 9763156067, 9763156068, 9763156069, 9763156070, 9763156071, 9763156066], "tags": {"amenity": "cafe", "brand": "Starbucks", "brand:wikidata": "Q37158", "building": "yes", "cuisine": "coffee_shop", "name": "Starbucks", "official_name": "Starbucks Coffee", "takeaway": "yes"}}]}